CENTAURI-1              
1 43809U 18099BD  26185.95616163  .00009662  00000+0  49741-3 0  9990
2 43809  97.4208 237.2948 0012519 264.3220  95.6585 15.16552813415193
CENTAURI-6              
1 59451U 24066K   26186.17808793  .00005599  00000+0  39493-3 0  9996
2 59451  45.6050 160.5315 0001190 236.2383 123.8388 15.05973778122836
CENTAURI-7              
1 62708U 25009DD  26186.29859668  .00007169  00000+0  61296-3 0  9994
2 62708  97.7077 266.3432 0002562 122.1507 237.9964 14.97923305 80170
CENTAURI-8              
1 62714U 25009DK  26186.19340606  .00005203  00000+0  44668-3 0  9998
2 62714  97.7052 266.0670 0003254  90.2127 269.9468 14.97895095 80171
