{"fetched_at":"2026-07-05T12:50:58.844Z","source":"https://celestrak.org/NORAD/elements/gp.php?NAME=CENTAURI&FORMAT=JSON","constellation":"myriota","records":[{"OBJECT_NAME":"CENTAURI-1","OBJECT_ID":"2018-099BD","EPOCH":"2026-07-04T22:56:52.364832","CLASSIFICATION_TYPE":"U","MEAN_MOTION":15.16552813,"ECCENTRICITY":0.00125195,"INCLINATION":97.4208,"RA_OF_ASC_NODE":237.2948,"ARG_OF_PERICENTER":264.322,"MEAN_ANOMALY":95.6585,"EPHEMERIS_TYPE":0,"NORAD_CAT_ID":43809,"ELEMENT_SET_NO":999,"REV_AT_EPOCH":41519,"BSTAR":0.00049740622,"MEAN_MOTION_DOT":0.00009662,"MEAN_MOTION_DDOT":0},{"OBJECT_NAME":"CENTAURI-6","OBJECT_ID":"2024-066K","EPOCH":"2026-07-05T04:16:26.797152","CLASSIFICATION_TYPE":"U","MEAN_MOTION":15.05973778,"ECCENTRICITY":0.00011909,"INCLINATION":45.605,"RA_OF_ASC_NODE":160.5315,"ARG_OF_PERICENTER":236.2383,"MEAN_ANOMALY":123.8388,"EPHEMERIS_TYPE":0,"NORAD_CAT_ID":59451,"ELEMENT_SET_NO":999,"REV_AT_EPOCH":12283,"BSTAR":0.00039493304,"MEAN_MOTION_DOT":0.00005599,"MEAN_MOTION_DDOT":0},{"OBJECT_NAME":"CENTAURI-7","OBJECT_ID":"2025-009DD","EPOCH":"2026-07-05T07:09:58.753152","CLASSIFICATION_TYPE":"U","MEAN_MOTION":14.97923305,"ECCENTRICITY":0.00025624,"INCLINATION":97.7077,"RA_OF_ASC_NODE":266.3432,"ARG_OF_PERICENTER":122.1507,"MEAN_ANOMALY":237.9964,"EPHEMERIS_TYPE":0,"NORAD_CAT_ID":62708,"ELEMENT_SET_NO":999,"REV_AT_EPOCH":8017,"BSTAR":0.00061295529,"MEAN_MOTION_DOT":0.00007169,"MEAN_MOTION_DDOT":0},{"OBJECT_NAME":"CENTAURI-8","OBJECT_ID":"2025-009DK","EPOCH":"2026-07-05T04:38:30.283584","CLASSIFICATION_TYPE":"U","MEAN_MOTION":14.97895095,"ECCENTRICITY":0.00032543,"INCLINATION":97.7052,"RA_OF_ASC_NODE":266.067,"ARG_OF_PERICENTER":90.2127,"MEAN_ANOMALY":269.9468,"EPHEMERIS_TYPE":0,"NORAD_CAT_ID":62714,"ELEMENT_SET_NO":999,"REV_AT_EPOCH":8017,"BSTAR":0.00044667553,"MEAN_MOTION_DOT":0.00005203,"MEAN_MOTION_DDOT":0}]}
